[{"OBJECT_NAME":"STARLINK-31506","OBJECT_ID":"2024-050F","EPOCH":"2025-09-13T18:51:05.999904","MEAN_MOTION":15.3020158,"ECCENTRICITY":9.401e-5,"INCLINATION":53.1584,"RA_OF_ASC_NODE":282.7041,"ARG_OF_PERICENTER":97.8451,"MEAN_ANOMALY":262.2657,"EPHEMERIS_TYPE":0,"CLASSIFICATION_TYPE":"U","NORAD_CAT_ID":59259,"ELEMENT_SET_NO":999,"REV_AT_EPOCH":8346,"BSTAR":4.1448145e-5,"MEAN_MOTION_DOT":8.69e-6,"MEAN_MOTION_DDOT":0},{"OBJECT_NAME":"STARLINK-31288","OBJECT_ID":"2024-050G","EPOCH":"2025-09-14T06:00:02.000160","MEAN_MOTION":15.73343654,"ECCENTRICITY":0.00108481,"INCLINATION":53.1358,"RA_OF_ASC_NODE":261.7984,"ARG_OF_PERICENTER":57.5616,"MEAN_ANOMALY":350.6361,"EPHEMERIS_TYPE":0,"CLASSIFICATION_TYPE":"U","NORAD_CAT_ID":59260,"ELEMENT_SET_NO":999,"REV_AT_EPOCH":594,"BSTAR":0.0028239205,"MEAN_MOTION_DOT":0.004197,"MEAN_MOTION_DDOT":0},{"OBJECT_NAME":"STARLINK-31639","OBJECT_ID":"2024-050H","EPOCH":"2025-09-14T02:23:06.823392","MEAN_MOTION":15.30202166,"ECCENTRICITY":7.449e-5,"INCLINATION":53.1597,"RA_OF_ASC_NODE":281.1098,"ARG_OF_PERICENTER":100.1552,"MEAN_ANOMALY":259.9533,"EPHEMERIS_TYPE":0,"CLASSIFICATION_TYPE":"U","NORAD_CAT_ID":59261,"ELEMENT_SET_NO":999,"REV_AT_EPOCH":8351,"BSTAR":-8.2420579e-5,"MEAN_MOTION_DOT":-2.799e-5,"MEAN_MOTION_DDOT":0},{"OBJECT_NAME":"STARLINK-31598","OBJECT_ID":"2024-050K","EPOCH":"2025-09-13T08:44:22.685280","MEAN_MOTION":15.30198967,"ECCENTRICITY":0.00011363,"INCLINATION":53.1593,"RA_OF_ASC_NODE":285.0319,"ARG_OF_PERICENTER":92.6548,"MEAN_ANOMALY":267.4583,"EPHEMERIS_TYPE":0,"CLASSIFICATION_TYPE":"U","NORAD_CAT_ID":59263,"ELEMENT_SET_NO":999,"REV_AT_EPOCH":8339,"BSTAR":3.8352246e-5,"MEAN_MOTION_DOT":7.77e-6,"MEAN_MOTION_DDOT":0},{"OBJECT_NAME":"STARLINK-31645","OBJECT_ID":"2024-050L","EPOCH":"2025-09-13T19:06:17.659872","MEAN_MOTION":15.30197953,"ECCENTRICITY":0.00014699,"INCLINATION":53.1607,"RA_OF_ASC_NODE":282.7654,"ARG_OF_PERICENTER":91.9246,"MEAN_ANOMALY":268.1924,"EPHEMERIS_TYPE":0,"CLASSIFICATION_TYPE":"U","NORAD_CAT_ID":59264,"ELEMENT_SET_NO":999,"REV_AT_EPOCH":8346,"BSTAR":-2.1924844e-5,"MEAN_MOTION_DOT":-1.009e-5,"MEAN_MOTION_DDOT":0},{"OBJECT_NAME":"STARLINK-31646","OBJECT_ID":"2024-050M","EPOCH":"2025-09-14T01:31:37.396128","MEAN_MOTION":15.30193906,"ECCENTRICITY":0.00013371,"INCLINATION":53.1601,"RA_OF_ASC_NODE":281.5917,"ARG_OF_PERICENTER":79.0865,"MEAN_ANOMALY":281.0287,"EPHEMERIS_TYPE":0,"CLASSIFICATION_TYPE":"U","NORAD_CAT_ID":59265,"ELEMENT_SET_NO":999,"REV_AT_EPOCH":8350,"BSTAR":8.1970289e-5,"MEAN_MOTION_DOT":2.069e-5,"MEAN_MOTION_DDOT":0},{"OBJECT_NAME":"STARLINK-31648","OBJECT_ID":"2024-050N","EPOCH":"2025-09-14T02:32:14.615808","MEAN_MOTION":15.3019547,"ECCENTRICITY":0.00011284,"INCLINATION":53.1589,"RA_OF_ASC_NODE":281.1466,"ARG_OF_PERICENTER":90.6576,"MEAN_ANOMALY":269.4554,"EPHEMERIS_TYPE":0,"CLASSIFICATION_TYPE":"U","NORAD_CAT_ID":59266,"ELEMENT_SET_NO":999,"REV_AT_EPOCH":8351,"BSTAR":2.2967223e-5,"MEAN_MOTION_DOT":3.21e-6,"MEAN_MOTION_DDOT":0},{"OBJECT_NAME":"STARLINK-31579","OBJECT_ID":"2024-050P","EPOCH":"2025-09-13T19:01:44.887296","MEAN_MOTION":15.30196965,"ECCENTRICITY":0.00022093,"INCLINATION":53.1585,"RA_OF_ASC_NODE":282.7469,"ARG_OF_PERICENTER":71.632,"MEAN_ANOMALY":288.4921,"EPHEMERIS_TYPE":0,"CLASSIFICATION_TYPE":"U","NORAD_CAT_ID":59267,"ELEMENT_SET_NO":999,"REV_AT_EPOCH":8346,"BSTAR":-3.997424e-6,"MEAN_MOTION_DOT":-4.78e-6,"MEAN_MOTION_DDOT":0},{"OBJECT_NAME":"STARLINK-31627","OBJECT_ID":"2024-050Q","EPOCH":"2025-09-14T01:49:51.470688","MEAN_MOTION":15.30197708,"ECCENTRICITY":0.00012908,"INCLINATION":53.1594,"RA_OF_ASC_NODE":281.6703,"ARG_OF_PERICENTER":80.1755,"MEAN_ANOMALY":279.9391,"EPHEMERIS_TYPE":0,"CLASSIFICATION_TYPE":"U","NORAD_CAT_ID":59268,"ELEMENT_SET_NO":999,"REV_AT_EPOCH":8350,"BSTAR":4.2465029e-5,"MEAN_MOTION_DOT":8.99e-6,"MEAN_MOTION_DDOT":0},{"OBJECT_NAME":"STARLINK-31609","OBJECT_ID":"2024-050R","EPOCH":"2025-09-13T19:10:51.070944","MEAN_MOTION":15.30193287,"ECCENTRICITY":0.00011816,"INCLINATION":53.161,"RA_OF_ASC_NODE":282.7849,"ARG_OF_PERICENTER":88.6522,"MEAN_ANOMALY":271.4614,"EPHEMERIS_TYPE":0,"CLASSIFICATION_TYPE":"U","NORAD_CAT_ID":59269,"ELEMENT_SET_NO":999,"REV_AT_EPOCH":8346,"BSTAR":3.1230937e-5,"MEAN_MOTION_DOT":5.66e-6,"MEAN_MOTION_DDOT":0},{"OBJECT_NAME":"STARLINK-31616","OBJECT_ID":"2024-050S","EPOCH":"2025-09-13T19:19:58.117728","MEAN_MOTION":15.3019037,"ECCENTRICITY":0.00013016,"INCLINATION":53.1595,"RA_OF_ASC_NODE":282.8237,"ARG_OF_PERICENTER":77.1972,"MEAN_ANOMALY":282.9174,"EPHEMERIS_TYPE":0,"CLASSIFICATION_TYPE":"U","NORAD_CAT_ID":59270,"ELEMENT_SET_NO":999,"REV_AT_EPOCH":8346,"BSTAR":3.127836e-5,"MEAN_MOTION_DOT":5.67e-6,"MEAN_MOTION_DDOT":0},{"OBJECT_NAME":"STARLINK-31630","OBJECT_ID":"2024-050T","EPOCH":"2025-09-14T01:47:32.255232","MEAN_MOTION":15.30194874,"ECCENTRICITY":0.00015561,"INCLINATION":53.157,"RA_OF_ASC_NODE":268.865,"ARG_OF_PERICENTER":71.2911,"MEAN_ANOMALY":288.8259,"EPHEMERIS_TYPE":0,"CLASSIFICATION_TYPE":"U","NORAD_CAT_ID":59271,"ELEMENT_SET_NO":999,"REV_AT_EPOCH":8368,"BSTAR":4.9239954e-5,"MEAN_MOTION_DOT":1.099e-5,"MEAN_MOTION_DDOT":0},{"OBJECT_NAME":"STARLINK-31623","OBJECT_ID":"2024-050U","EPOCH":"2025-09-14T01:55:46.315488","MEAN_MOTION":15.30190391,"ECCENTRICITY":0.00012697,"INCLINATION":53.1588,"RA_OF_ASC_NODE":280.9924,"ARG_OF_PERICENTER":69.8841,"MEAN_ANOMALY":290.2296,"EPHEMERIS_TYPE":0,"CLASSIFICATION_TYPE":"U","NORAD_CAT_ID":59272,"ELEMENT_SET_NO":999,"REV_AT_EPOCH":8351,"BSTAR":0.00010956978,"MEAN_MOTION_DOT":2.886e-5,"MEAN_MOTION_DDOT":0},{"OBJECT_NAME":"STARLINK-31595","OBJECT_ID":"2024-050V","EPOCH":"2025-09-13T18:46:32.603520","MEAN_MOTION":15.30173385,"ECCENTRICITY":0.00015339,"INCLINATION":53.1595,"RA_OF_ASC_NODE":282.6958,"ARG_OF_PERICENTER":91.9345,"MEAN_ANOMALY":268.1832,"EPHEMERIS_TYPE":0,"CLASSIFICATION_TYPE":"U","NORAD_CAT_ID":59273,"ELEMENT_SET_NO":999,"REV_AT_EPOCH":8346,"BSTAR":7.335976e-5,"MEAN_MOTION_DOT":1.812e-5,"MEAN_MOTION_DDOT":0},{"OBJECT_NAME":"STARLINK-31463","OBJECT_ID":"2024-056A","EPOCH":"2025-09-14T02:30:30.090816","MEAN_MOTION":15.27590069,"ECCENTRICITY":0.00010262,"INCLINATION":43,"RA_OF_ASC_NODE":144.0162,"ARG_OF_PERICENTER":291.394,"MEAN_ANOMALY":68.6802,"EPHEMERIS_TYPE":0,"CLASSIFICATION_TYPE":"U","NORAD_CAT_ID":59296,"ELEMENT_SET_NO":999,"REV_AT_EPOCH":8419,"BSTAR":-9.64541e-6,"MEAN_MOTION_DOT":-5.27e-6,"MEAN_MOTION_DDOT":0},{"OBJECT_NAME":"STARLINK-31487","OBJECT_ID":"2024-056B","EPOCH":"2025-09-13T10:31:47.973216","MEAN_MOTION":15.27559083,"ECCENTRICITY":5.233e-5,"INCLINATION":43.0022,"RA_OF_ASC_NODE":151.9436,"ARG_OF_PERICENTER":251.0913,"MEAN_ANOMALY":108.9882,"EPHEMERIS_TYPE":0,"CLASSIFICATION_TYPE":"U","NORAD_CAT_ID":59297,"ELEMENT_SET_NO":999,"REV_AT_EPOCH":8416,"BSTAR":-0.00013835416,"MEAN_MOTION_DOT":-4.064e-5,"MEAN_MOTION_DDOT":0},{"OBJECT_NAME":"STARLINK-31386","OBJECT_ID":"2024-056C","EPOCH":"2025-09-14T01:47:26.906208","MEAN_MOTION":15.2757197,"ECCENTRICITY":6.698e-5,"INCLINATION":43.0023,"RA_OF_ASC_NODE":148.1133,"ARG_OF_PERICENTER":299.2958,"MEAN_ANOMALY":60.7826,"EPHEMERIS_TYPE":0,"CLASSIFICATION_TYPE":"U","NORAD_CAT_ID":59298,"ELEMENT_SET_NO":999,"REV_AT_EPOCH":8414,"BSTAR":7.34674e-5,"MEAN_MOTION_DOT":1.76e-5,"MEAN_MOTION_DDOT":0},{"OBJECT_NAME":"STARLINK-31409","OBJECT_ID":"2024-056D","EPOCH":"2025-09-14T01:52:32.863296","MEAN_MOTION":15.27559629,"ECCENTRICITY":0.00020998,"INCLINATION":43.0011,"RA_OF_ASC_NODE":141.2208,"ARG_OF_PERICENTER":269.6199,"MEAN_ANOMALY":90.4412,"EPHEMERIS_TYPE":0,"CLASSIFICATION_TYPE":"U","NORAD_CAT_ID":59299,"ELEMENT_SET_NO":999,"REV_AT_EPOCH":8434,"BSTAR":0.00016016392,"MEAN_MOTION_DOT":4.145e-5,"MEAN_MOTION_DDOT":0},{"OBJECT_NAME":"STARLINK-31489","OBJECT_ID":"2024-056E","EPOCH":"2025-09-14T01:25:14.734848","MEAN_MOTION":15.27590919,"ECCENTRICITY":0.00015364,"INCLINATION":43.0008,"RA_OF_ASC_NODE":147.9956,"ARG_OF_PERICENTER":272.021,"MEAN_ANOMALY":88.0466,"EPHEMERIS_TYPE":0,"CLASSIFICATION_TYPE":"U","NORAD_CAT_ID":59300,"ELEMENT_SET_NO":999,"REV_AT_EPOCH":8414,"BSTAR":-8.2914492e-5,"MEAN_MOTION_DOT":-2.544e-5,"MEAN_MOTION_DDOT":0},{"OBJECT_NAME":"STARLINK-31502","OBJECT_ID":"2024-056F","EPOCH":"2025-09-14T01:15:32.310720","MEAN_MOTION":15.27577395,"ECCENTRICITY":7.349e-5,"INCLINATION":43.0023,"RA_OF_ASC_NODE":141.0127,"ARG_OF_PERICENTER":322.9285,"MEAN_ANOMALY":37.1515,"EPHEMERIS_TYPE":0,"CLASSIFICATION_TYPE":"U","NORAD_CAT_ID":59301,"ELEMENT_SET_NO":999,"REV_AT_EPOCH":8422,"BSTAR":9.7673732e-5,"MEAN_MOTION_DOT":2.427e-5,"MEAN_MOTION_DDOT":0},{"OBJECT_NAME":"STARLINK-31447","OBJECT_ID":"2024-056G","EPOCH":"2025-09-14T01:51:08.231904","MEAN_MOTION":15.27580493,"ECCENTRICITY":8.2e-5,"INCLINATION":43.0024,"RA_OF_ASC_NODE":148.1372,"ARG_OF_PERICENTER":268.6231,"MEAN_ANOMALY":91.4527,"EPHEMERIS_TYPE":0,"CLASSIFICATION_TYPE":"U","NORAD_CAT_ID":59302,"ELEMENT_SET_NO":999,"REV_AT_EPOCH":8414,"BSTAR":0.00011364975,"MEAN_MOTION_DOT":2.867e-5,"MEAN_MOTION_DDOT":0},{"OBJECT_NAME":"STARLINK-31504","OBJECT_ID":"2024-056H","EPOCH":"2025-09-14T02:02:14.874432","MEAN_MOTION":15.27580127,"ECCENTRICITY":1.84e-5,"INCLINATION":43.0026,"RA_OF_ASC_NODE":148.1869,"ARG_OF_PERICENTER":174.227,"MEAN_ANOMALY":185.8584,"EPHEMERIS_TYPE":0,"CLASSIFICATION_TYPE":"U","NORAD_CAT_ID":59303,"ELEMENT_SET_NO":999,"REV_AT_EPOCH":8414,"BSTAR":4.8634768e-5,"MEAN_MOTION_DOT":1.077e-5,"MEAN_MOTION_DDOT":0},{"OBJECT_NAME":"STARLINK-31474","OBJECT_ID":"2024-056J","EPOCH":"2025-09-14T01:59:56.891040","MEAN_MOTION":15.27563521,"ECCENTRICITY":7.536e-5,"INCLINATION":43.001,"RA_OF_ASC_NODE":141.254,"ARG_OF_PERICENTER":270.396,"MEAN_ANOMALY":89.6805,"EPHEMERIS_TYPE":0,"CLASSIFICATION_TYPE":"U","NORAD_CAT_ID":59304,"ELEMENT_SET_NO":999,"REV_AT_EPOCH":8422,"BSTAR":0.00014997827,"MEAN_MOTION_DOT":3.865e-5,"MEAN_MOTION_DDOT":0}]
